{
  "type": "FeatureCollection",
  "features": [
    {
      "type": "Feature",
      "properties": {
        "norad_id": 44794,
        "name": "BEIDOU-3 M21 (C43)",
        "group": "beidou",
        "lat": 28.18326348506946,
        "lon": -31.18133955219692,
        "alt_km": 21513.87631690416,
        "timestamp": "2025-12-22T14:45:57.668130+00:00",
        "meta_object_name": "BEIDOU-3 M21 (C43)",
        "meta_object_id": "2019-078B",
        "meta_epoch": "2025-12-22T00:36:11.320992",
        "meta_mean_motion": 1.86227905,
        "meta_eccentricity": 0.00042975,
        "meta_inclination": 54.0732,
        "meta_ra_of_asc_node": 306.0255,
        "meta_arg_of_pericenter": 12.7987,
        "meta_mean_anomaly": 347.2125,
        "meta_ephemeris_type": 0,
        "meta_classification_type": "U",
        "meta_norad_cat_id": 44794,
        "meta_element_set_no": 999,
        "meta_rev_at_epoch": 4135,
        "meta_bstar": 0,
        "meta_mean_motion_dot": -5.8e-07,
        "meta_mean_motion_ddot": 0,
        "tle_line1": "1 44794U 19078B   25356.02513103 -.00000058  00000+0  00000+0 0  9991",
        "tle_line2": "2 44794  54.0732 306.0255 0004297  12.7987 347.2125  1.86227905 41355"
      },
      "geometry": {
        "type": "Point",
        "coordinates": [
          -31.18133955219692,
          28.18326348506946
        ]
      }
    },
    {
      "type": "Feature",
      "properties": {
        "norad_id": 44864,
        "name": "BEIDOU-3 M19 (C41)",
        "group": "beidou",
        "lat": -40.56993089603042,
        "lon": -76.70802146368517,
        "alt_km": 21502.545957762286,
        "timestamp": "2025-12-22T14:45:57.668141+00:00",
        "meta_object_name": "BEIDOU-3 M19 (C41)",
        "meta_object_id": "2019-090A",
        "meta_epoch": "2025-12-22T06:47:40.337664",
        "meta_mean_motion": 1.8623164,
        "meta_eccentricity": 0.00183372,
        "meta_inclination": 56.4008,
        "meta_ra_of_asc_node": 68.6452,
        "meta_arg_of_pericenter": 285.1073,
        "meta_mean_anomaly": 83.7045,
        "meta_ephemeris_type": 0,
        "meta_classification_type": "U",
        "meta_norad_cat_id": 44864,
        "meta_element_set_no": 999,
        "meta_rev_at_epoch": 4094,
        "meta_bstar": 0,
        "meta_mean_motion_dot": -2.9e-07,
        "meta_mean_motion_ddot": 0,
        "tle_line1": "1 44864U 19090A   25356.28310576 -.00000029  00000+0  00000+0 0  9998",
        "tle_line2": "2 44864  56.4008  68.6452 0018337 285.1073  83.7045  1.86231640 40945"
      },
      "geometry": {
        "type": "Point",
        "coordinates": [
          -76.70802146368517,
          -40.56993089603042
        ]
      }
    },
    {
      "type": "Feature",
      "properties": {
        "norad_id": 44865,
        "name": "BEIDOU-3 M20 (C42)",
        "group": "beidou",
        "lat": -31.51792170430946,
        "lon": 44.66637092163367,
        "alt_km": 21492.6012005698,
        "timestamp": "2025-12-22T14:45:57.668152+00:00",
        "meta_object_name": "BEIDOU-3 M20 (C42)",
        "meta_object_id": "2019-090B",
        "meta_epoch": "2025-12-22T03:27:20.583072",
        "meta_mean_motion": 1.86231562,
        "meta_eccentricity": 0.00154748,
        "meta_inclination": 56.4023,
        "meta_ra_of_asc_node": 68.6841,
        "meta_arg_of_pericenter": 297.2268,
        "meta_mean_anomaly": 67.9266,
        "meta_ephemeris_type": 0,
        "meta_classification_type": "U",
        "meta_norad_cat_id": 44865,
        "meta_element_set_no": 999,
        "meta_rev_at_epoch": 4092,
        "meta_bstar": 0,
        "meta_mean_motion_dot": -3e-07,
        "meta_mean_motion_ddot": 0,
        "tle_line1": "1 44865U 19090B   25356.14398823 -.00000030  00000+0  00000+0 0  9997",
        "tle_line2": "2 44865  56.4023  68.6841 0015474 297.2268  67.9266  1.86231562 40924"
      },
      "geometry": {
        "type": "Point",
        "coordinates": [
          44.66637092163367,
          -31.51792170430946
        ]
      }
    },
    {
      "type": "Feature",
      "properties": {
        "norad_id": 45344,
        "name": "BEIDOU-3 G2 (C60)",
        "group": "beidou",
        "lat": -0.4705948504579251,
        "lon": 32.97295537061982,
        "alt_km": 35789.682668638416,
        "timestamp": "2025-12-22T14:45:57.668164+00:00",
        "meta_object_name": "BEIDOU-3 G2 (C60)",
        "meta_object_id": "2020-017A",
        "meta_epoch": "2025-12-19T13:38:45.370752",
        "meta_mean_motion": 1.00273166,
        "meta_eccentricity": 0.0002079,
        "meta_inclination": 2.5096,
        "meta_ra_of_asc_node": 44.0024,
        "meta_arg_of_pericenter": 233.0917,
        "meta_mean_anomaly": 96.0359,
        "meta_ephemeris_type": 0,
        "meta_classification_type": "U",
        "meta_norad_cat_id": 45344,
        "meta_element_set_no": 999,
        "meta_rev_at_epoch": 2145,
        "meta_bstar": 0,
        "meta_mean_motion_dot": -1.18e-06,
        "meta_mean_motion_ddot": 0,
        "tle_line1": "1 45344U 20017A   25353.56858068 -.00000118  00000+0  00000+0 0  9993",
        "tle_line2": "2 45344   2.5096  44.0024 0002079 233.0917  96.0359  1.00273166 21451"
      },
      "geometry": {
        "type": "Point",
        "coordinates": [
          32.97295537061982,
          -0.4705948504579251
        ]
      }
    },
    {
      "type": "Feature",
      "properties": {
        "norad_id": 45807,
        "name": "BEIDOU-3 G3 (C61)",
        "group": "beidou",
        "lat": -0.09053815230658231,
        "lon": 63.51968375669467,
        "alt_km": 35768.24637532202,
        "timestamp": "2025-12-22T14:45:57.668177+00:00",
        "meta_object_name": "BEIDOU-3 G3 (C61)",
        "meta_object_id": "2020-040A",
        "meta_epoch": "2025-12-22T06:50:21.967872",
        "meta_mean_motion": 1.00269404,
        "meta_eccentricity": 0.00065322,
        "meta_inclination": 2.013,
        "meta_ra_of_asc_node": 66.6638,
        "meta_arg_of_pericenter": 309.3195,
        "meta_mean_anomaly": 288.2645,
        "meta_ephemeris_type": 0,
        "meta_classification_type": "U",
        "meta_norad_cat_id": 45807,
        "meta_element_set_no": 999,
        "meta_rev_at_epoch": 2029,
        "meta_bstar": 0,
        "meta_mean_motion_dot": -3.33e-06,
        "meta_mean_motion_ddot": 0,
        "tle_line1": "1 45807U 20040A   25356.28497648 -.00000333  00000+0  00000+0 0  9997",
        "tle_line2": "2 45807   2.0130  66.6638 0006532 309.3195 288.2645  1.00269404 20297"
      },
      "geometry": {
        "type": "Point",
        "coordinates": [
          63.51968375669467,
          -0.09053815230658231
        ]
      }
    },
    {
      "type": "Feature",
      "properties": {
        "norad_id": 56564,
        "name": "BEIDOU-3 G4 (C62)",
        "group": "beidou",
        "lat": 0.15935545694050995,
        "lon": 112.93333528768527,
        "alt_km": 35780.00042791497,
        "timestamp": "2025-12-22T14:45:57.668188+00:00",
        "meta_object_name": "BEIDOU-3 G4 (C62)",
        "meta_object_id": "2023-066A",
        "meta_epoch": "2025-12-22T05:22:00.430176",
        "meta_mean_motion": 1.00271314,
        "meta_eccentricity": 0.0002668,
        "meta_inclination": 0.7954,
        "meta_ra_of_asc_node": 302.7801,
        "meta_arg_of_pericenter": 226.6515,
        "meta_mean_anomaly": 162.1611,
        "meta_ephemeris_type": 0,
        "meta_classification_type": "U",
        "meta_norad_cat_id": 56564,
        "meta_element_set_no": 999,
        "meta_rev_at_epoch": 962,
        "meta_bstar": 0,
        "meta_mean_motion_dot": -8.8e-07,
        "meta_mean_motion_ddot": 0,
        "tle_line1": "1 56564U 23066A   25356.22361609 -.00000088  00000+0  00000+0 0  9998",
        "tle_line2": "2 56564   0.7954 302.7801 0002668 226.6515 162.1611  1.00271314  9627"
      },
      "geometry": {
        "type": "Point",
        "coordinates": [
          112.93333528768527,
          0.15935545694050995
        ]
      }
    },
    {
      "type": "Feature",
      "properties": {
        "norad_id": 58654,
        "name": "BEIDOU-3 M28 (C50)",
        "group": "beidou",
        "lat": -13.777570495048167,
        "lon": 58.62534964664745,
        "alt_km": 21527.42360652715,
        "timestamp": "2025-12-22T14:45:57.668200+00:00",
        "meta_object_name": "BEIDOU-3 M28 (C50)",
        "meta_object_id": "2023-207A",
        "meta_epoch": "2025-12-22T02:28:45.780096",
        "meta_mean_motion": 1.86229752,
        "meta_eccentricity": 0.00028015,
        "meta_inclination": 55.5924,
        "meta_ra_of_asc_node": 68.2843,
        "meta_arg_of_pericenter": 274.1973,
        "meta_mean_anomaly": 85.8199,
        "meta_ephemeris_type": 0,
        "meta_classification_type": "U",
        "meta_norad_cat_id": 58654,
        "meta_element_set_no": 999,
        "meta_rev_at_epoch": 1354,
        "meta_bstar": 0,
        "meta_mean_motion_dot": -3.2e-07,
        "meta_mean_motion_ddot": 0,
        "tle_line1": "1 58654U 23207A   25356.10330764 -.00000032  00000+0  00000+0 0  9991",
        "tle_line2": "2 58654  55.5924  68.2843 0002801 274.1973  85.8199  1.86229752 13540"
      },
      "geometry": {
        "type": "Point",
        "coordinates": [
          58.62534964664745,
          -13.777570495048167
        ]
      }
    }
  ]
}